[{"OBJECT_NAME":"COSMOS 2571","OBJECT_ID":"2023-165C","EPOCH":"2026-03-09T19:25:49.566144","MEAN_MOTION":13.97323702,"ECCENTRICITY":0.0010141,"INCLINATION":67.1509,"RA_OF_ASC_NODE":169.1542,"ARG_OF_PERICENTER":25.0362,"MEAN_ANOMALY":335.1212,"EPHEMERIS_TYPE":0,"CLASSIFICATION_TYPE":"U","NORAD_CAT_ID":58172,"ELEMENT_SET_NO":999,"REV_AT_EPOCH":12047,"BSTAR":5.9518e-5,"MEAN_MOTION_DOT":8.0e-8,"MEAN_MOTION_DDOT":0},{"OBJECT_NAME":"THOR AGENA D R\/B","OBJECT_ID":"1967-053B","EPOCH":"2026-03-09T23:10:49.651680","MEAN_MOTION":13.97709127,"ECCENTRICITY":0.00095505,"INCLINATION":69.9708,"RA_OF_ASC_NODE":286.5598,"ARG_OF_PERICENTER":292.0129,"MEAN_ANOMALY":67.9962,"EPHEMERIS_TYPE":0,"CLASSIFICATION_TYPE":"U","NORAD_CAT_ID":2825,"ELEMENT_SET_NO":999,"REV_AT_EPOCH":7823,"BSTAR":9.003267e-5,"MEAN_MOTION_DOT":7.4e-7,"MEAN_MOTION_DDOT":0}]
